{
  "type": "FeatureCollection",
  "features": [
    {
      "type": "Feature",
      "properties": {
        "norad_id": 32332,
        "name": "FENGYUN 1C DEB",
        "group": "fengyun-1c-debris",
        "lat": 0.3543372546959358,
        "lon": -130.1521646738086,
        "alt_km": 966.7436915192839,
        "timestamp": "2025-12-21T18:54:58.782598+00:00",
        "meta_object_name": "FENGYUN 1C DEB",
        "meta_object_id": "1999-025CXZ",
        "meta_epoch": "2025-12-15T21:05:55.809024",
        "meta_mean_motion": 13.97153731,
        "meta_eccentricity": 0.02851681,
        "meta_inclination": 99.133,
        "meta_ra_of_asc_node": 43.9123,
        "meta_arg_of_pericenter": 304.1737,
        "meta_mean_anomaly": 53.2688,
        "meta_ephemeris_type": 0,
        "meta_classification_type": "U",
        "meta_norad_cat_id": 32332,
        "meta_element_set_no": 999,
        "meta_rev_at_epoch": 93080,
        "meta_bstar": 0.0011409516,
        "meta_mean_motion_dot": 2.204e-05,
        "meta_mean_motion_ddot": 0,
        "tle_line1": "1 32332U 99025CXZ 25349.87911816  .00002204  00000+0  11410-2 0  9998",
        "tle_line2": "2 32332  99.1330  43.9123 0285168 304.1737  53.2688 13.97153731930809"
      },
      "geometry": {
        "type": "Point",
        "coordinates": [
          -130.1521646738086,
          0.3543372546959358
        ]
      }
    },
    {
      "type": "Feature",
      "properties": {
        "norad_id": 32334,
        "name": "FENGYUN 1C DEB",
        "group": "fengyun-1c-debris",
        "lat": 19.12731040036747,
        "lon": -126.43538471644929,
        "alt_km": 892.3695678682216,
        "timestamp": "2025-12-21T18:54:58.782609+00:00",
        "meta_object_name": "FENGYUN 1C DEB",
        "meta_object_id": "1999-025CYB",
        "meta_epoch": "2025-12-20T21:35:14.752320",
        "meta_mean_motion": 14.01648838,
        "meta_eccentricity": 0.0066864,
        "meta_inclination": 99.2513,
        "meta_ra_of_asc_node": 49.4234,
        "meta_arg_of_pericenter": 258.2674,
        "meta_mean_anomaly": 101.0983,
        "meta_ephemeris_type": 0,
        "meta_classification_type": "U",
        "meta_norad_cat_id": 32334,
        "meta_element_set_no": 999,
        "meta_rev_at_epoch": 94054,
        "meta_bstar": 0.00019324,
        "meta_mean_motion_dot": 2.52e-06,
        "meta_mean_motion_ddot": 0,
        "tle_line1": "1 32334U 99025CYB 25354.89947630  .00000252  00000+0  19324-3 0  9995",
        "tle_line2": "2 32334  99.2513  49.4234 0066864 258.2674 101.0983 14.01648838940543"
      },
      "geometry": {
        "type": "Point",
        "coordinates": [
          -126.43538471644929,
          19.12731040036747
        ]
      }
    },
    {
      "type": "Feature",
      "properties": {
        "norad_id": 32340,
        "name": "FENGYUN 1C DEB",
        "group": "fengyun-1c-debris",
        "lat": -68.16968686464311,
        "lon": 25.817672134590907,
        "alt_km": 631.47946452633,
        "timestamp": "2025-12-21T18:54:58.782619+00:00",
        "meta_object_name": "FENGYUN 1C DEB",
        "meta_object_id": "1999-025CYH",
        "meta_epoch": "2025-12-19T23:16:08.079744",
        "meta_mean_motion": 14.74800402,
        "meta_eccentricity": 0.0033614,
        "meta_inclination": 98.9802,
        "meta_ra_of_asc_node": 0.5514,
        "meta_arg_of_pericenter": 270.76,
        "meta_mean_anomaly": 88.9754,
        "meta_ephemeris_type": 0,
        "meta_classification_type": "U",
        "meta_norad_cat_id": 32340,
        "meta_element_set_no": 999,
        "meta_rev_at_epoch": 97303,
        "meta_bstar": 0.0014642,
        "meta_mean_motion_dot": 9.842e-05,
        "meta_mean_motion_ddot": 0,
        "tle_line1": "1 32340U 99025CYH 25353.96953796  .00009842  00000+0  14642-2 0  9990",
        "tle_line2": "2 32340  98.9802   0.5514 0033614 270.7600  88.9754 14.74800402973037"
      },
      "geometry": {
        "type": "Point",
        "coordinates": [
          25.817672134590907,
          -68.16968686464311
        ]
      }
    },
    {
      "type": "Feature",
      "properties": {
        "norad_id": 32342,
        "name": "FENGYUN 1C DEB",
        "group": "fengyun-1c-debris",
        "lat": 0.4219424962677893,
        "lon": -175.8206011118768,
        "alt_km": 854.7795573612948,
        "timestamp": "2025-12-21T18:54:58.782631+00:00",
        "meta_object_name": "FENGYUN 1C DEB",
        "meta_object_id": "1999-025CYK",
        "meta_epoch": "2025-12-21T12:00:37.738656",
        "meta_mean_motion": 14.13402372,
        "meta_eccentricity": 0.00070553,
        "meta_inclination": 98.6698,
        "meta_ra_of_asc_node": 3.8362,
        "meta_arg_of_pericenter": 325.2905,
        "meta_mean_anomaly": 190.9219,
        "meta_ephemeris_type": 0,
        "meta_classification_type": "U",
        "meta_norad_cat_id": 32342,
        "meta_element_set_no": 999,
        "meta_rev_at_epoch": 93841,
        "meta_bstar": 9.3456137e-05,
        "meta_mean_motion_dot": 1.33e-06,
        "meta_mean_motion_ddot": 0,
        "tle_line1": "1 32342U 99025CYK 25355.50043679  .00000133  00000+0  93456-4 0  9990",
        "tle_line2": "2 32342  98.6698   3.8362 0007055 325.2905 190.9219 14.13402372938410"
      },
      "geometry": {
        "type": "Point",
        "coordinates": [
          -175.8206011118768,
          0.4219424962677893
        ]
      }
    },
    {
      "type": "Feature",
      "properties": {
        "norad_id": 32343,
        "name": "FENGYUN 1C DEB",
        "group": "fengyun-1c-debris",
        "lat": -26.757879176192656,
        "lon": 157.93519503602357,
        "alt_km": 859.1073991759722,
        "timestamp": "2025-12-21T18:54:58.782641+00:00",
        "meta_object_name": "FENGYUN 1C DEB",
        "meta_object_id": "1999-025CYL",
        "meta_epoch": "2025-12-13T05:18:56.833632",
        "meta_mean_motion": 14.19848796,
        "meta_eccentricity": 0.01521973,
        "meta_inclination": 98.6084,
        "meta_ra_of_asc_node": 333.9812,
        "meta_arg_of_pericenter": 126.2805,
        "meta_mean_anomaly": 235.2541,
        "meta_ephemeris_type": 0,
        "meta_classification_type": "U",
        "meta_norad_cat_id": 32343,
        "meta_element_set_no": 999,
        "meta_rev_at_epoch": 64720,
        "meta_bstar": 0.00041342117,
        "meta_mean_motion_dot": 9.43e-06,
        "meta_mean_motion_ddot": 0,
        "tle_line1": "1 32343U 99025CYL 25347.22149113  .00000943  00000+0  41342-3 0  9996",
        "tle_line2": "2 32343  98.6084 333.9812 0152197 126.2805 235.2541 14.19848796647208"
      },
      "geometry": {
        "type": "Point",
        "coordinates": [
          157.93519503602357,
          -26.757879176192656
        ]
      }
    },
    {
      "type": "Feature",
      "properties": {
        "norad_id": 32350,
        "name": "FENGYUN 1C DEB",
        "group": "fengyun-1c-debris",
        "lat": 72.4974325958426,
        "lon": -112.3085081036863,
        "alt_km": 892.4795444488327,
        "timestamp": "2025-12-21T18:54:58.782677+00:00",
        "meta_object_name": "FENGYUN 1C DEB",
        "meta_object_id": "1999-025CYT",
        "meta_epoch": "2025-12-14T09:31:41.023776",
        "meta_mean_motion": 14.52585967,
        "meta_eccentricity": 0.02665518,
        "meta_inclination": 98.2297,
        "meta_ra_of_asc_node": 33.1134,
        "meta_arg_of_pericenter": 293.5046,
        "meta_mean_anomaly": 63.8346,
        "meta_ephemeris_type": 0,
        "meta_classification_type": "U",
        "meta_norad_cat_id": 32350,
        "meta_element_set_no": 999,
        "meta_rev_at_epoch": 97551,
        "meta_bstar": 0.00074129025,
        "meta_mean_motion_dot": 4.788e-05,
        "meta_mean_motion_ddot": 0,
        "tle_line1": "1 32350U 99025CYT 25348.39700259  .00004788  00000+0  74129-3 0  9997",
        "tle_line2": "2 32350  98.2297  33.1134 0266551 293.5046  63.8346 14.52585967975510"
      },
      "geometry": {
        "type": "Point",
        "coordinates": [
          -112.3085081036863,
          72.4974325958426
        ]
      }
    },
    {
      "type": "Feature",
      "properties": {
        "norad_id": 32352,
        "name": "FENGYUN 1C DEB",
        "group": "fengyun-1c-debris",
        "lat": -25.790428718411235,
        "lon": 91.76325505364122,
        "alt_km": 717.3594312112755,
        "timestamp": "2025-12-21T18:54:58.782688+00:00",
        "meta_object_name": "FENGYUN 1C DEB",
        "meta_object_id": "1999-025CYV",
        "meta_epoch": "2025-12-19T12:39:41.171040",
        "meta_mean_motion": 14.41429626,
        "meta_eccentricity": 0.0122359,
        "meta_inclination": 98.7786,
        "meta_ra_of_asc_node": 273.7231,
        "meta_arg_of_pericenter": 150.9024,
        "meta_mean_anomaly": 209.9056,
        "meta_ephemeris_type": 0,
        "meta_classification_type": "U",
        "meta_norad_cat_id": 32352,
        "meta_element_set_no": 999,
        "meta_rev_at_epoch": 65367,
        "meta_bstar": 0.0001377,
        "meta_mean_motion_dot": 4.38e-06,
        "meta_mean_motion_ddot": 0,
        "tle_line1": "1 32352U 99025CYV 25353.52755985  .00000438  00000+0  13770-3 0  9999",
        "tle_line2": "2 32352  98.7786 273.7231 0122359 150.9024 209.9056 14.41429626653677"
      },
      "geometry": {
        "type": "Point",
        "coordinates": [
          91.76325505364122,
          -25.790428718411235
        ]
      }
    }
  ]
}